{
  "type": "FeatureCollection",
  "features": [
    {
      "type": "Feature",
      "properties": {
        "norad_id": 41866,
        "name": "GOES 16",
        "group": "weather",
        "lat": 0.07623396931036412,
        "lon": 161.95374470697593,
        "alt_km": 35789.615950547945,
        "timestamp": "2025-12-26T11:25:44.866105+00:00",
        "meta_object_name": "GOES 16",
        "meta_object_id": "2016-071A",
        "meta_epoch": "2025-12-26T01:40:38.552160",
        "meta_mean_motion": 1.0027174,
        "meta_eccentricity": 0.0003239,
        "meta_inclination": 0.0783,
        "meta_ra_of_asc_node": 101.035,
        "meta_arg_of_pericenter": 165.7681,
        "meta_mean_anomaly": 108.5169,
        "meta_ephemeris_type": 0,
        "meta_classification_type": "U",
        "meta_norad_cat_id": 41866,
        "meta_element_set_no": 999,
        "meta_rev_at_epoch": 3336,
        "meta_bstar": 0,
        "meta_mean_motion_dot": -6.9e-07,
        "meta_mean_motion_ddot": 0,
        "tle_line1": "1 41866U 16071A   25360.06989065 -.00000069  00000+0  00000+0 0  9993",
        "tle_line2": "2 41866   0.0783 101.0350 0003239 165.7681 108.5169  1.00271740 33363"
      },
      "geometry": {
        "type": "Point",
        "coordinates": [
          161.95374470697593,
          0.07623396931036412
        ]
      }
    },
    {
      "type": "Feature",
      "properties": {
        "norad_id": 41882,
        "name": "FENGYUN 4A",
        "group": "weather",
        "lat": -1.4781402874197584,
        "lon": 30.247959608833835,
        "alt_km": 35807.3083908811,
        "timestamp": "2025-12-26T11:25:44.866116+00:00",
        "meta_object_name": "FENGYUN 4A",
        "meta_object_id": "2016-077A",
        "meta_epoch": "2025-12-26T02:19:21.450720",
        "meta_mean_motion": 1.00262566,
        "meta_eccentricity": 0.0004528,
        "meta_inclination": 1.8809,
        "meta_ra_of_asc_node": 82.26,
        "meta_arg_of_pericenter": 143.2043,
        "meta_mean_anomaly": 27.8016,
        "meta_ephemeris_type": 0,
        "meta_classification_type": "U",
        "meta_norad_cat_id": 41882,
        "meta_element_set_no": 999,
        "meta_rev_at_epoch": 3319,
        "meta_bstar": 0,
        "meta_mean_motion_dot": -3.36e-06,
        "meta_mean_motion_ddot": 0,
        "tle_line1": "1 41882U 16077A   25360.09677605 -.00000336  00000+0  00000+0 0  9991",
        "tle_line2": "2 41882   1.8809  82.2600 0004528 143.2043  27.8016  1.00262566 33193"
      },
      "geometry": {
        "type": "Point",
        "coordinates": [
          30.247959608833835,
          -1.4781402874197584
        ]
      }
    },
    {
      "type": "Feature",
      "properties": {
        "norad_id": 41884,
        "name": "CYGFM05",
        "group": "weather",
        "lat": -2.0240155585160897,
        "lon": -45.53034916636532,
        "alt_km": 417.20009086707887,
        "timestamp": "2025-12-26T11:25:44.866125+00:00",
        "meta_object_name": "CYGFM05",
        "meta_object_id": "2016-078A",
        "meta_epoch": "2025-12-26T03:42:22.178304",
        "meta_mean_motion": 15.48143326,
        "meta_eccentricity": 0.0010454,
        "meta_inclination": 34.9601,
        "meta_ra_of_asc_node": 319.4726,
        "meta_arg_of_pericenter": 298.4253,
        "meta_mean_anomaly": 61.5415,
        "meta_ephemeris_type": 0,
        "meta_classification_type": "U",
        "meta_norad_cat_id": 41884,
        "meta_element_set_no": 999,
        "meta_rev_at_epoch": 50184,
        "meta_bstar": 0.00036901,
        "meta_mean_motion_dot": 0.00020025,
        "meta_mean_motion_ddot": 0,
        "tle_line1": "1 41884U 16078A   25360.15442336  .00020025  00000+0  36901-3 0  9991",
        "tle_line2": "2 41884  34.9601 319.4726 0010454 298.4253  61.5415 15.48143326501846"
      },
      "geometry": {
        "type": "Point",
        "coordinates": [
          -45.53034916636532,
          -2.0240155585160897
        ]
      }
    },
    {
      "type": "Feature",
      "properties": {
        "norad_id": 41885,
        "name": "CYGFM04",
        "group": "weather",
        "lat": 7.3199617190717925,
        "lon": -57.65111884550003,
        "alt_km": 407.63118377808587,
        "timestamp": "2025-12-26T11:25:44.866135+00:00",
        "meta_object_name": "CYGFM04",
        "meta_object_id": "2016-078B",
        "meta_epoch": "2025-12-26T02:06:18.118080",
        "meta_mean_motion": 15.50937538,
        "meta_eccentricity": 0.0008989,
        "meta_inclination": 34.9347,
        "meta_ra_of_asc_node": 294.2953,
        "meta_arg_of_pericenter": 322.579,
        "meta_mean_anomaly": 37.4306,
        "meta_ephemeris_type": 0,
        "meta_classification_type": "U",
        "meta_norad_cat_id": 41885,
        "meta_element_set_no": 999,
        "meta_rev_at_epoch": 50201,
        "meta_bstar": 0.00037814,
        "meta_mean_motion_dot": 0.00022656,
        "meta_mean_motion_ddot": 0,
        "tle_line1": "1 41885U 16078B   25360.08770970  .00022656  00000+0  37814-3 0  9998",
        "tle_line2": "2 41885  34.9347 294.2953 0008989 322.5790  37.4306 15.50937538502011"
      },
      "geometry": {
        "type": "Point",
        "coordinates": [
          -57.65111884550003,
          7.3199617190717925
        ]
      }
    },
    {
      "type": "Feature",
      "properties": {
        "norad_id": 41886,
        "name": "CYGFM02",
        "group": "weather",
        "lat": 34.74264726145445,
        "lon": 26.545754664290726,
        "alt_km": 407.72750901700874,
        "timestamp": "2025-12-26T11:25:44.866144+00:00",
        "meta_object_name": "CYGFM02",
        "meta_object_id": "2016-078C",
        "meta_epoch": "2025-12-26T03:18:11.674368",
        "meta_mean_motion": 15.52360469,
        "meta_eccentricity": 0.0010586,
        "meta_inclination": 34.9436,
        "meta_ra_of_asc_node": 292.1173,
        "meta_arg_of_pericenter": 324.7882,
        "meta_mean_anomaly": 35.214,
        "meta_ephemeris_type": 0,
        "meta_classification_type": "U",
        "meta_norad_cat_id": 41886,
        "meta_element_set_no": 999,
        "meta_rev_at_epoch": 50215,
        "meta_bstar": 0.00038252,
        "meta_mean_motion_dot": 0.00024144,
        "meta_mean_motion_ddot": 0,
        "tle_line1": "1 41886U 16078C   25360.13763512  .00024144  00000+0  38252-3 0  9990",
        "tle_line2": "2 41886  34.9436 292.1173 0010586 324.7882  35.2140 15.52360469502156"
      },
      "geometry": {
        "type": "Point",
        "coordinates": [
          26.545754664290726,
          34.74264726145445
        ]
      }
    },
    {
      "type": "Feature",
      "properties": {
        "norad_id": 41887,
        "name": "CYGFM01",
        "group": "weather",
        "lat": 32.52600724989999,
        "lon": 25.586780390129732,
        "alt_km": 419.3288631616242,
        "timestamp": "2025-12-26T11:25:44.866153+00:00",
        "meta_object_name": "CYGFM01",
        "meta_object_id": "2016-078D",
        "meta_epoch": "2025-12-26T04:56:26.352384",
        "meta_mean_motion": 15.48740434,
        "meta_eccentricity": 0.0010254,
        "meta_inclination": 34.9436,
        "meta_ra_of_asc_node": 321.3899,
        "meta_arg_of_pericenter": 291.2931,
        "meta_mean_anomaly": 68.6695,
        "meta_ephemeris_type": 0,
        "meta_classification_type": "U",
        "meta_norad_cat_id": 41887,
        "meta_element_set_no": 999,
        "meta_rev_at_epoch": 50179,
        "meta_bstar": 0.00037112,
        "meta_mean_motion_dot": 0.00020569,
        "meta_mean_motion_ddot": 0,
        "tle_line1": "1 41887U 16078D   25360.20586056  .00020569  00000+0  37112-3 0  9996",
        "tle_line2": "2 41887  34.9436 321.3899 0010254 291.2931  68.6695 15.48740434501795"
      },
      "geometry": {
        "type": "Point",
        "coordinates": [
          25.586780390129732,
          32.52600724989999
        ]
      }
    },
    {
      "type": "Feature",
      "properties": {
        "norad_id": 41888,
        "name": "CYGFM08",
        "group": "weather",
        "lat": 0.5883970361078487,
        "lon": 121.60724664298391,
        "alt_km": 421.3350715673123,
        "timestamp": "2025-12-26T11:25:44.866163+00:00",
        "meta_object_name": "CYGFM08",
        "meta_object_id": "2016-078E",
        "meta_epoch": "2025-12-26T04:28:38.499744",
        "meta_mean_motion": 15.4998199,
        "meta_eccentricity": 0.0011341,
        "meta_inclination": 34.946,
        "meta_ra_of_asc_node": 304.349,
        "meta_arg_of_pericenter": 314.88,
        "meta_mean_anomaly": 45.1001,
        "meta_ephemeris_type": 0,
        "meta_classification_type": "U",
        "meta_norad_cat_id": 41888,
        "meta_element_set_no": 999,
        "meta_rev_at_epoch": 50202,
        "meta_bstar": 0.00037787,
        "meta_mean_motion_dot": 0.00021899,
        "meta_mean_motion_ddot": 0,
        "tle_line1": "1 41888U 16078E   25360.18655671  .00021899  00000+0  37787-3 0  9999",
        "tle_line2": "2 41888  34.9460 304.3490 0011341 314.8800  45.1001 15.49981990502029"
      },
      "geometry": {
        "type": "Point",
        "coordinates": [
          121.60724664298391,
          0.5883970361078487
        ]
      }
    }
  ]
}